OBJECT_NAME,OBJECT_ID,EPOCH,MEAN_MOTION,ECCENTRICITY,INCLINATION,RA_OF_ASC_NODE,ARG_OF_PERICENTER,MEAN_ANOMALY,EPHEMERIS_TYPE,CLASSIFICATION_TYPE,NORAD_CAT_ID,ELEMENT_SET_NO,REV_AT_EPOCH,BSTAR,MEAN_MOTION_DOT,MEAN_MOTION_DDOT
TRITON-1,2013-066M,2026-06-09T06:13:25.635936,14.81681542,.00883018,97.8246,70.2464,260.2089,98.9144,0,U,39427,999,67291,.30911803E-3,.2545E-4,0
GOMX-1,2013-066Q,2026-06-09T06:53:20.399424,14.69429819,.01301381,97.6494,1.2481,102.6304,258.9490,0,U,39430,999,66875,.24471672E-3,.16E-4,0
CUBEBUG-2 (LO-74),2013-066AA,2026-06-09T02:12:00.699264,14.93697738,.00591913,97.8903,109.0360,55.3304,305.3474,0,U,39440,999,67578,.3170228E-3,.3409E-4,0
NEE-02 KRYSAOR,2013-066AB,2026-06-09T01:33:22.811040,14.86583594,.00676998,97.8887,99.3379,96.1920,264.7013,0,U,39441,999,67499,.20685673E-3,.1853E-4,0
FUNCUBE-1 (AO-73),2013-066AE,2026-06-09T04:01:43.626720,15.09393647,.00348293,97.8270,131.4468,228.8451,130.9771,0,U,39444,999,67845,.31573804E-3,.5048E-4,0
UWE-3,2013-066AG,2026-06-09T03:04:03.741312,14.96959057,.00487694,97.8686,116.1479,348.2293,11.7784,0,U,39446,999,67637,.30256314E-3,.3499E-4,0
SMDC ONE 2.4,2013-072H,2026-06-09T07:10:25.876704,15.18033237,.01441857,120.4934,321.6312,10.6177,349.7893,0,U,39469,999,11663,.30299748E-3,.7746E-4,0
COSMOS 2488 (RODNIK-S 7),2013-076A,2026-06-09T05:30:48.069792,12.42905206,.00207492,82.4834,173.6529,111.6500,248.6792,0,U,39483,999,56490,-.22185509E-3,-.21E-6,0
COSMOS 2489 (RODNIK-S 8),2013-076B,2026-06-09T06:50:45.856608,12.42878867,.00225771,82.4871,174.9945,111.6290,248.7197,0,U,39484,999,56496,-.73203384E-3,-.91E-6,0
COSMOS 2490 (RODNIK-S 9),2013-076C,2026-06-09T06:10:16.026816,12.42877394,.00225515,82.4818,173.0829,126.6525,233.6633,0,U,39485,999,56489,-.50546247E-3,-.6E-6,0
KAZEOSAT 1,2014-024A,2026-06-09T07:40:47.376192,14.42077314,.000146,98.3201,232.9626,75.5890,284.5462,0,U,39731,999,63742,.80245838E-4,.221E-5,0
COSMOS 2496 (RODNIK-S 10),2014-028A,2026-06-09T07:05:02.450400,12.42878594,.0021255,82.4444,113.6740,95.0926,265.2580,0,U,39761,999,54653,.77690836E-3,.118E-5,0
COSMOS 2497 (RODNIK-S 11),2014-028B,2026-06-09T06:29:35.387808,12.42894176,.00218443,82.4492,115.3761,90.4077,269.9506,0,U,39762,999,54653,.73430016E-3,.112E-5,0
COSMOS 2498 (RODNIK-S 12),2014-028C,2026-06-09T05:58:07.513248,12.42979989,.00225415,82.4454,113.8804,90.0960,270.2703,0,U,39763,999,54656,.25275833E-3,.45E-6,0
HODOYOSHI-4,2014-033B,2026-06-09T07:14:03.343776,14.88108308,.00231823,97.5460,345.5050,335.6399,24.3721,0,U,40011,999,64763,.45783415E-4,.371E-5,0
UNISAT-6,2014-033C,2026-06-09T03:10:28.725888,14.88202581,.00464422,97.7870,312.9873,95.0707,265.5813,0,U,40012,999,64496,.2655009E-3,.2442E-4,0
DEIMOS-2,2014-033D,2026-06-09T06:41:00.602880,14.93708127,.00020485,97.5840,35.0449,59.1237,301.0184,0,U,40013,999,63654,.20272556E-3,.2091E-4,0
BUGSAT-1 (TITA),2014-033E,2026-06-09T05:53:17.312064,15.15501136,.00274775,98.0418,252.3302,205.5281,154.4595,0,U,40014,999,65463,.29617337E-3,.5586E-4,0
SAUDISAT 4,2014-033G,2026-06-09T06:34:15.614112,14.79533680,.00462289,97.7574,306.6828,98.9378,261.7071,0,U,40016,999,64490,.95581018E-4,.676E-5,0
APRIZESAT 9,2014-033J,2026-06-09T04:45:42.547968,14.74203721,.00651612,97.9050,293.5927,225.1280,134.4627,0,U,40018,999,64238,.95359318E-4,.598E-5,0
BRITE-CA1 (TORONTO),2014-033L,2026-06-09T07:00:37.235232,14.72665739,.00774268,97.9729,289.3660,302.7376,56.6385,0,U,40020,999,64105,.1011072E-3,.62E-5,0
